[{"OBJECT_NAME":"STARLINK-5228","OBJECT_ID":"2022-141Z","EPOCH":"2026-01-16T21:33:00.013248","MEAN_MOTION":15.08814056,"ECCENTRICITY":0.00016082,"INCLINATION":53.219,"RA_OF_ASC_NODE":236.2861,"ARG_OF_PERICENTER":101.3643,"MEAN_ANOMALY":258.753,"EPHEMERIS_TYPE":0,"CLASSIFICATION_TYPE":"U","NORAD_CAT_ID":54180,"ELEMENT_SET_NO":999,"REV_AT_EPOCH":17804,"BSTAR":-0.00015302927,"MEAN_MOTION_DOT":-2.721e-5,"MEAN_MOTION_DDOT":0},{"OBJECT_NAME":"STARLINK-5227","OBJECT_ID":"2022-141AA","EPOCH":"2026-01-16T21:48:52.859232","MEAN_MOTION":15.08837306,"ECCENTRICITY":0.00016109,"INCLINATION":53.217,"RA_OF_ASC_NODE":236.3527,"ARG_OF_PERICENTER":93.693,"MEAN_ANOMALY":266.4247,"EPHEMERIS_TYPE":0,"CLASSIFICATION_TYPE":"U","NORAD_CAT_ID":54181,"ELEMENT_SET_NO":999,"REV_AT_EPOCH":17804,"BSTAR":2.9291796e-5,"MEAN_MOTION_DOT":1.78e-6,"MEAN_MOTION_DDOT":0},{"OBJECT_NAME":"STARLINK-5231","OBJECT_ID":"2022-141AB","EPOCH":"2026-01-16T18:04:58.000512","MEAN_MOTION":15.08834512,"ECCENTRICITY":0.00015809,"INCLINATION":53.2166,"RA_OF_ASC_NODE":206.9069,"ARG_OF_PERICENTER":95.1093,"MEAN_ANOMALY":265.0079,"EPHEMERIS_TYPE":0,"CLASSIFICATION_TYPE":"U","NORAD_CAT_ID":54182,"ELEMENT_SET_NO":999,"REV_AT_EPOCH":17844,"BSTAR":5.790522e-6,"MEAN_MOTION_DOT":-1.96e-6,"MEAN_MOTION_DDOT":0},{"OBJECT_NAME":"STARLINK-5239","OBJECT_ID":"2022-141AC","EPOCH":"2026-01-16T21:27:39.244608","MEAN_MOTION":15.08839438,"ECCENTRICITY":0.00013875,"INCLINATION":53.2166,"RA_OF_ASC_NODE":236.2618,"ARG_OF_PERICENTER":88.4089,"MEAN_ANOMALY":271.7062,"EPHEMERIS_TYPE":0,"CLASSIFICATION_TYPE":"U","NORAD_CAT_ID":54183,"ELEMENT_SET_NO":999,"REV_AT_EPOCH":17804,"BSTAR":7.1076002e-5,"MEAN_MOTION_DOT":8.43e-6,"MEAN_MOTION_DDOT":0},{"OBJECT_NAME":"STARLINK-5162","OBJECT_ID":"2022-141AD","EPOCH":"2026-01-16T21:34:27.870816","MEAN_MOTION":15.08838013,"ECCENTRICITY":0.00015279,"INCLINATION":53.2173,"RA_OF_ASC_NODE":236.9822,"ARG_OF_PERICENTER":92.5368,"MEAN_ANOMALY":267.5799,"EPHEMERIS_TYPE":0,"CLASSIFICATION_TYPE":"U","NORAD_CAT_ID":54184,"ELEMENT_SET_NO":999,"REV_AT_EPOCH":17803,"BSTAR":1.8211561e-5,"MEAN_MOTION_DOT":2.0e-8,"MEAN_MOTION_DDOT":0},{"OBJECT_NAME":"STARLINK-5235","OBJECT_ID":"2022-141AE","EPOCH":"2026-01-16T21:43:34.477824","MEAN_MOTION":15.08838592,"ECCENTRICITY":0.000143,"INCLINATION":53.217,"RA_OF_ASC_NODE":236.3291,"ARG_OF_PERICENTER":91.3587,"MEAN_ANOMALY":268.7569,"EPHEMERIS_TYPE":0,"CLASSIFICATION_TYPE":"U","NORAD_CAT_ID":54185,"ELEMENT_SET_NO":999,"REV_AT_EPOCH":17804,"BSTAR":1.8322692e-5,"MEAN_MOTION_DOT":4.0e-8,"MEAN_MOTION_DDOT":0},{"OBJECT_NAME":"STARLINK-5240","OBJECT_ID":"2022-141AG","EPOCH":"2026-01-16T23:29:35.200032","MEAN_MOTION":15.08825155,"ECCENTRICITY":0.00011319,"INCLINATION":53.2164,"RA_OF_ASC_NODE":236.0857,"ARG_OF_PERICENTER":91.37,"MEAN_ANOMALY":268.7421,"EPHEMERIS_TYPE":0,"CLASSIFICATION_TYPE":"U","NORAD_CAT_ID":54187,"ELEMENT_SET_NO":999,"REV_AT_EPOCH":17805,"BSTAR":9.521103e-5,"MEAN_MOTION_DOT":1.227e-5,"MEAN_MOTION_DDOT":0},{"OBJECT_NAME":"STARLINK-5238","OBJECT_ID":"2022-141AH","EPOCH":"2026-01-16T21:02:34.797696","MEAN_MOTION":15.0883874,"ECCENTRICITY":0.00015063,"INCLINATION":53.2163,"RA_OF_ASC_NODE":226.8793,"ARG_OF_PERICENTER":89.8903,"MEAN_ANOMALY":270.2261,"EPHEMERIS_TYPE":0,"CLASSIFICATION_TYPE":"U","NORAD_CAT_ID":54188,"ELEMENT_SET_NO":999,"REV_AT_EPOCH":17817,"BSTAR":5.4345001e-5,"MEAN_MOTION_DOT":5.77e-6,"MEAN_MOTION_DDOT":0},{"OBJECT_NAME":"STARLINK-5281","OBJECT_ID":"2022-141AK","EPOCH":"2026-01-16T20:57:16.374816","MEAN_MOTION":15.088372,"ECCENTRICITY":0.00014864,"INCLINATION":53.2168,"RA_OF_ASC_NODE":226.8561,"ARG_OF_PERICENTER":87.5237,"MEAN_ANOMALY":272.5926,"EPHEMERIS_TYPE":0,"CLASSIFICATION_TYPE":"U","NORAD_CAT_ID":54190,"ELEMENT_SET_NO":999,"REV_AT_EPOCH":17817,"BSTAR":2.5783402e-5,"MEAN_MOTION_DOT":1.22e-6,"MEAN_MOTION_DDOT":0},{"OBJECT_NAME":"STARLINK-4619","OBJECT_ID":"2022-141AL","EPOCH":"2026-01-16T22:48:34.675776","MEAN_MOTION":15.08838312,"ECCENTRICITY":0.00014568,"INCLINATION":53.2159,"RA_OF_ASC_NODE":226.6283,"ARG_OF_PERICENTER":90.7555,"MEAN_ANOMALY":269.3604,"EPHEMERIS_TYPE":0,"CLASSIFICATION_TYPE":"U","NORAD_CAT_ID":54191,"ELEMENT_SET_NO":999,"REV_AT_EPOCH":17818,"BSTAR":3.7873843e-5,"MEAN_MOTION_DOT":3.15e-6,"MEAN_MOTION_DDOT":0},{"OBJECT_NAME":"STARLINK-5268","OBJECT_ID":"2022-141AM","EPOCH":"2026-01-16T21:39:36.458784","MEAN_MOTION":15.08849052,"ECCENTRICITY":0.00013818,"INCLINATION":53.2162,"RA_OF_ASC_NODE":226.3294,"ARG_OF_PERICENTER":97.1653,"MEAN_ANOMALY":262.9497,"EPHEMERIS_TYPE":0,"CLASSIFICATION_TYPE":"U","NORAD_CAT_ID":54192,"ELEMENT_SET_NO":999,"REV_AT_EPOCH":17818,"BSTAR":7.0571292e-5,"MEAN_MOTION_DOT":8.36e-6,"MEAN_MOTION_DDOT":0},{"OBJECT_NAME":"STARLINK-5263","OBJECT_ID":"2022-141AN","EPOCH":"2026-01-16T20:46:37.794144","MEAN_MOTION":15.08861069,"ECCENTRICITY":0.00013709,"INCLINATION":53.2171,"RA_OF_ASC_NODE":226.8116,"ARG_OF_PERICENTER":78.2908,"MEAN_ANOMALY":281.8238,"EPHEMERIS_TYPE":0,"CLASSIFICATION_TYPE":"U","NORAD_CAT_ID":54193,"ELEMENT_SET_NO":999,"REV_AT_EPOCH":17817,"BSTAR":0.0002188934,"MEAN_MOTION_DOT":3.199e-5,"MEAN_MOTION_DDOT":0},{"OBJECT_NAME":"STARLINK-5271","OBJECT_ID":"2022-141AP","EPOCH":"2026-01-16T22:11:25.730304","MEAN_MOTION":15.0884479,"ECCENTRICITY":0.00015922,"INCLINATION":53.2162,"RA_OF_ASC_NODE":226.4661,"ARG_OF_PERICENTER":88.7158,"MEAN_ANOMALY":271.4016,"EPHEMERIS_TYPE":0,"CLASSIFICATION_TYPE":"U","NORAD_CAT_ID":54194,"ELEMENT_SET_NO":999,"REV_AT_EPOCH":17818,"BSTAR":7.0732778e-5,"MEAN_MOTION_DOT":8.38e-6,"MEAN_MOTION_DDOT":0},{"OBJECT_NAME":"STARLINK-5258","OBJECT_ID":"2022-141AQ","EPOCH":"2026-01-16T20:51:57.908736","MEAN_MOTION":15.08841145,"ECCENTRICITY":0.00015207,"INCLINATION":53.216,"RA_OF_ASC_NODE":226.8327,"ARG_OF_PERICENTER":93.4342,"MEAN_ANOMALY":266.6825,"EPHEMERIS_TYPE":0,"CLASSIFICATION_TYPE":"U","NORAD_CAT_ID":54195,"ELEMENT_SET_NO":999,"REV_AT_EPOCH":17817,"BSTAR":7.6297992e-5,"MEAN_MOTION_DOT":9.27e-6,"MEAN_MOTION_DDOT":0},{"OBJECT_NAME":"STARLINK-5237","OBJECT_ID":"2022-141AR","EPOCH":"2026-01-16T23:36:13.926528","MEAN_MOTION":15.08843965,"ECCENTRICITY":0.00015881,"INCLINATION":53.2154,"RA_OF_ASC_NODE":226.1214,"ARG_OF_PERICENTER":92.0252,"MEAN_ANOMALY":268.0922,"EPHEMERIS_TYPE":0,"CLASSIFICATION_TYPE":"U","NORAD_CAT_ID":54196,"ELEMENT_SET_NO":999,"REV_AT_EPOCH":17819,"BSTAR":5.2007972e-5,"MEAN_MOTION_DOT":5.4e-6,"MEAN_MOTION_DDOT":0},{"OBJECT_NAME":"STARLINK-5246","OBJECT_ID":"2022-141AT","EPOCH":"2026-01-16T20:20:07.805184","MEAN_MOTION":15.08841854,"ECCENTRICITY":0.00016477,"INCLINATION":53.2161,"RA_OF_ASC_NODE":226.6935,"ARG_OF_PERICENTER":89.0497,"MEAN_ANOMALY":271.0684,"EPHEMERIS_TYPE":0,"CLASSIFICATION_TYPE":"U","NORAD_CAT_ID":54198,"ELEMENT_SET_NO":999,"REV_AT_EPOCH":17817,"BSTAR":3.0702679e-5,"MEAN_MOTION_DOT":2.01e-6,"MEAN_MOTION_DDOT":0},{"OBJECT_NAME":"STARLINK-5244","OBJECT_ID":"2022-141AU","EPOCH":"2026-01-16T20:30:44.695008","MEAN_MOTION":15.08842624,"ECCENTRICITY":0.0001665,"INCLINATION":53.2165,"RA_OF_ASC_NODE":226.7402,"ARG_OF_PERICENTER":89.173,"MEAN_ANOMALY":270.9452,"EPHEMERIS_TYPE":0,"CLASSIFICATION_TYPE":"U","NORAD_CAT_ID":54199,"ELEMENT_SET_NO":999,"REV_AT_EPOCH":17817,"BSTAR":6.3723233e-5,"MEAN_MOTION_DOT":7.26e-6,"MEAN_MOTION_DDOT":0},{"OBJECT_NAME":"STARLINK-5250","OBJECT_ID":"2022-141AV","EPOCH":"2026-01-16T23:20:17.240064","MEAN_MOTION":15.08842501,"ECCENTRICITY":0.00014726,"INCLINATION":53.2158,"RA_OF_ASC_NODE":226.0539,"ARG_OF_PERICENTER":92.0595,"MEAN_ANOMALY":268.0566,"EPHEMERIS_TYPE":0,"CLASSIFICATION_TYPE":"U","NORAD_CAT_ID":54200,"ELEMENT_SET_NO":999,"REV_AT_EPOCH":17819,"BSTAR":6.0543756e-5,"MEAN_MOTION_DOT":6.76e-6,"MEAN_MOTION_DDOT":0},{"OBJECT_NAME":"STARLINK-5199","OBJECT_ID":"2022-141AW","EPOCH":"2026-01-16T20:41:21.095808","MEAN_MOTION":15.0883886,"ECCENTRICITY":0.00010833,"INCLINATION":53.2159,"RA_OF_ASC_NODE":226.7787,"ARG_OF_PERICENTER":88.2131,"MEAN_ANOMALY":271.8985,"EPHEMERIS_TYPE":0,"CLASSIFICATION_TYPE":"U","NORAD_CAT_ID":54201,"ELEMENT_SET_NO":999,"REV_AT_EPOCH":17817,"BSTAR":-9.0254528e-5,"MEAN_MOTION_DOT":-1.724e-5,"MEAN_MOTION_DDOT":0},{"OBJECT_NAME":"STARLINK-5205","OBJECT_ID":"2022-141AX","EPOCH":"2026-01-16T21:34:17.535648","MEAN_MOTION":15.08841556,"ECCENTRICITY":0.00013622,"INCLINATION":53.2161,"RA_OF_ASC_NODE":226.3059,"ARG_OF_PERICENTER":86.4475,"MEAN_ANOMALY":273.6673,"EPHEMERIS_TYPE":0,"CLASSIFICATION_TYPE":"U","NORAD_CAT_ID":54202,"ELEMENT_SET_NO":999,"REV_AT_EPOCH":17818,"BSTAR":6.4892911e-5,"MEAN_MOTION_DOT":7.45e-6,"MEAN_MOTION_DDOT":0},{"OBJECT_NAME":"STARLINK-5247","OBJECT_ID":"2022-141AY","EPOCH":"2026-01-16T23:25:36.996960","MEAN_MOTION":15.08834113,"ECCENTRICITY":0.00014591,"INCLINATION":53.2163,"RA_OF_ASC_NODE":226.0776,"ARG_OF_PERICENTER":87.8826,"MEAN_ANOMALY":272.2333,"EPHEMERIS_TYPE":0,"CLASSIFICATION_TYPE":"U","NORAD_CAT_ID":54203,"ELEMENT_SET_NO":999,"REV_AT_EPOCH":17819,"BSTAR":5.3964015e-5,"MEAN_MOTION_DOT":5.71e-6,"MEAN_MOTION_DDOT":0},{"OBJECT_NAME":"STARLINK-5241","OBJECT_ID":"2022-141AZ","EPOCH":"2026-01-16T21:18:22.655808","MEAN_MOTION":15.08836981,"ECCENTRICITY":0.00014222,"INCLINATION":53.2166,"RA_OF_ASC_NODE":226.2396,"ARG_OF_PERICENTER":87.1889,"MEAN_ANOMALY":272.9266,"EPHEMERIS_TYPE":0,"CLASSIFICATION_TYPE":"U","NORAD_CAT_ID":54204,"ELEMENT_SET_NO":999,"REV_AT_EPOCH":17818,"BSTAR":5.1388869e-5,"MEAN_MOTION_DOT":5.3e-6,"MEAN_MOTION_DDOT":0},{"OBJECT_NAME":"STARLINK-5249","OBJECT_ID":"2022-141BA","EPOCH":"2026-01-16T21:28:59.149920","MEAN_MOTION":15.08841708,"ECCENTRICITY":0.00014995,"INCLINATION":53.2164,"RA_OF_ASC_NODE":226.2834,"ARG_OF_PERICENTER":92.2557,"MEAN_ANOMALY":267.8607,"EPHEMERIS_TYPE":0,"CLASSIFICATION_TYPE":"U","NORAD_CAT_ID":54205,"ELEMENT_SET_NO":999,"REV_AT_EPOCH":17818,"BSTAR":5.8900347e-5,"MEAN_MOTION_DOT":6.5e-6,"MEAN_MOTION_DDOT":0}]
